[{"OBJECT_NAME":"STARLINK-35881","OBJECT_ID":"2025-280K","EPOCH":"2026-03-09T23:15:17.063136","MEAN_MOTION":14.9839933,"ECCENTRICITY":0.00016193,"INCLINATION":70.0042,"RA_OF_ASC_NODE":333.92,"ARG_OF_PERICENTER":218.1502,"MEAN_ANOMALY":141.9542,"EPHEMERIS_TYPE":0,"CLASSIFICATION_TYPE":"U","NORAD_CAT_ID":66830,"ELEMENT_SET_NO":999,"REV_AT_EPOCH":1611,"BSTAR":0.0034462676,"MEAN_MOTION_DOT":0.00041343,"MEAN_MOTION_DDOT":0},{"OBJECT_NAME":"CZ-4C DEB","OBJECT_ID":"2018-031C","EPOCH":"2026-03-09T22:35:49.335936","MEAN_MOTION":15.00077094,"ECCENTRICITY":0.00045193,"INCLINATION":97.7854,"RA_OF_ASC_NODE":153.1131,"ARG_OF_PERICENTER":226.9779,"MEAN_ANOMALY":133.1066,"EPHEMERIS_TYPE":0,"CLASSIFICATION_TYPE":"U","NORAD_CAT_ID":43261,"ELEMENT_SET_NO":999,"REV_AT_EPOCH":42952,"BSTAR":0.00069836513,"MEAN_MOTION_DOT":8.649e-5,"MEAN_MOTION_DDOT":0}]
